[
    {
        "OBJECT_NAME": "SL-3 R/B",
        "OBJECT_ID": "1983-010B",
        "EPOCH": "2026-05-16T20:28:36.516288",
        "MEAN_MOTION": 15.48284529,
        "ECCENTRICITY": 0.0016073,
        "INCLINATION": 81.1014,
        "RA_OF_ASC_NODE": 278.5268,
        "ARG_OF_PERICENTER": 167.5076,
        "MEAN_ANOMALY": 192.6572,
        "EPHEMERIS_TYPE": 0,
        "CLASSIFICATION_TYPE": "U",
        "NORAD_CAT_ID": 13819,
        "ELEMENT_SET_NO": 999,
        "REV_AT_EPOCH": 36848,
        "BSTAR": 0.00023739,
        "MEAN_MOTION_DOT": 0.00012626,
        "MEAN_MOTION_DDOT": 0
    },
    {
        "OBJECT_NAME": "SL-3 R/B",
        "OBJECT_ID": "1983-075B",
        "EPOCH": "2026-05-16T18:05:17.596032",
        "MEAN_MOTION": 15.39872171,
        "ECCENTRICITY": 0.0020311,
        "INCLINATION": 97.6108,
        "RA_OF_ASC_NODE": 143.9885,
        "ARG_OF_PERICENTER": 351.5076,
        "MEAN_ANOMALY": 8.5822,
        "EPHEMERIS_TYPE": 0,
        "CLASSIFICATION_TYPE": "U",
        "NORAD_CAT_ID": 14208,
        "ELEMENT_SET_NO": 999,
        "REV_AT_EPOCH": 34062,
        "BSTAR": 0.00022319,
        "MEAN_MOTION_DOT": 8.84e-05,
        "MEAN_MOTION_DDOT": 0
    },
    {
        "OBJECT_NAME": "COSMOS 1536",
        "OBJECT_ID": "1984-013A",
        "EPOCH": "2026-05-16T20:39:54.549792",
        "MEAN_MOTION": 15.24694986,
        "ECCENTRICITY": 0.0015688,
        "INCLINATION": 82.5468,
        "RA_OF_ASC_NODE": 40.0339,
        "ARG_OF_PERICENTER": 47.9595,
        "MEAN_ANOMALY": 312.2975,
        "EPHEMERIS_TYPE": 0,
        "CLASSIFICATION_TYPE": "U",
        "NORAD_CAT_ID": 14699,
        "ELEMENT_SET_NO": 999,
        "REV_AT_EPOCH": 28300,
        "BSTAR": 0.00019547,
        "MEAN_MOTION_DOT": 4.881e-05,
        "MEAN_MOTION_DDOT": 0
    },
    {
        "OBJECT_NAME": "SL-14 R/B",
        "OBJECT_ID": "1984-027B",
        "EPOCH": "2026-05-16T20:05:34.029888",
        "MEAN_MOTION": 14.86035987,
        "ECCENTRICITY": 0.0019537,
        "INCLINATION": 82.5424,
        "RA_OF_ASC_NODE": 181.1156,
        "ARG_OF_PERICENTER": 106.5992,
        "MEAN_ANOMALY": 253.7372,
        "EPHEMERIS_TYPE": 0,
        "CLASSIFICATION_TYPE": "U",
        "NORAD_CAT_ID": 14820,
        "ELEMENT_SET_NO": 999,
        "REV_AT_EPOCH": 25775,
        "BSTAR": 2.5042e-05,
        "MEAN_MOTION_DOT": 2.45e-06,
        "MEAN_MOTION_DDOT": 0
    },
    {
        "OBJECT_NAME": "SL-8 R/B",
        "OBJECT_ID": "1985-006B",
        "EPOCH": "2026-05-16T17:27:23.841792",
        "MEAN_MOTION": 14.37819416,
        "ECCENTRICITY": 0.0017685,
        "INCLINATION": 74.0434,
        "RA_OF_ASC_NODE": 135.9551,
        "ARG_OF_PERICENTER": 30.319,
        "MEAN_ANOMALY": 142.5522,
        "EPHEMERIS_TYPE": 0,
        "CLASSIFICATION_TYPE": "U",
        "NORAD_CAT_ID": 15483,
        "ELEMENT_SET_NO": 999,
        "REV_AT_EPOCH": 16380,
        "BSTAR": 2.091e-05,
        "MEAN_MOTION_DOT": 3.7e-07,
        "MEAN_MOTION_DDOT": 0
    },
    {
        "OBJECT_NAME": "SL-12 R/B(2)",
        "OBJECT_ID": "1985-042D",
        "EPOCH": "2026-05-16T16:59:47.544288",
        "MEAN_MOTION": 14.21999468,
        "ECCENTRICITY": 0.0034489,
        "INCLINATION": 71.1077,
        "RA_OF_ASC_NODE": 304.0239,
        "ARG_OF_PERICENTER": 16.5096,
        "MEAN_ANOMALY": 354.0634,
        "EPHEMERIS_TYPE": 0,
        "CLASSIFICATION_TYPE": "U",
        "NORAD_CAT_ID": 15772,
        "ELEMENT_SET_NO": 999,
        "REV_AT_EPOCH": 12406,
        "BSTAR": 5.5601e-05,
        "MEAN_MOTION_DOT": 7.6e-07,
        "MEAN_MOTION_DDOT": 0
    },
    {
        "OBJECT_NAME": "SL-14 R/B",
        "OBJECT_ID": "1985-069B",
        "EPOCH": "2026-05-16T19:13:28.457184",
        "MEAN_MOTION": 14.86490544,
        "ECCENTRICITY": 0.0017966,
        "INCLINATION": 82.5252,
        "RA_OF_ASC_NODE": 320.8898,
        "ARG_OF_PERICENTER": 331.0243,
        "MEAN_ANOMALY": 28.9975,
        "EPHEMERIS_TYPE": 0,
        "CLASSIFICATION_TYPE": "U",
        "NORAD_CAT_ID": 15945,
        "ELEMENT_SET_NO": 999,
        "REV_AT_EPOCH": 18295,
        "BSTAR": 2.6045e-05,
        "MEAN_MOTION_DOT": 2.55e-06,
        "MEAN_MOTION_DDOT": 0
    },
    {
        "OBJECT_NAME": "SL-16 R/B",
        "OBJECT_ID": "1985-097B",
        "EPOCH": "2026-05-16T15:03:43.407936",
        "MEAN_MOTION": 14.1660955,
        "ECCENTRICITY": 0.0006787,
        "INCLINATION": 71.0041,
        "RA_OF_ASC_NODE": 357.5231,
        "ARG_OF_PERICENTER": 170.3318,
        "MEAN_ANOMALY": 221.4726,
        "EPHEMERIS_TYPE": 0,
        "CLASSIFICATION_TYPE": "U",
        "NORAD_CAT_ID": 16182,
        "ELEMENT_SET_NO": 999,
        "REV_AT_EPOCH": 9685,
        "BSTAR": -5.3739e-05,
        "MEAN_MOTION_DOT": -1.55e-06,
        "MEAN_MOTION_DDOT": 0
    },
    {
        "OBJECT_NAME": "SL-14 R/B",
        "OBJECT_ID": "1986-006B",
        "EPOCH": "2026-05-16T19:51:09.634176",
        "MEAN_MOTION": 14.86913225,
        "ECCENTRICITY": 0.0077515,
        "INCLINATION": 82.5282,
        "RA_OF_ASC_NODE": 195.6218,
        "ARG_OF_PERICENTER": 47.6693,
        "MEAN_ANOMALY": 313.1055,
        "EPHEMERIS_TYPE": 0,
        "CLASSIFICATION_TYPE": "U",
        "NORAD_CAT_ID": 16496,
        "ELEMENT_SET_NO": 999,
        "REV_AT_EPOCH": 15933,
        "BSTAR": 3.4582e-05,
        "MEAN_MOTION_DOT": 3.54e-06,
        "MEAN_MOTION_DDOT": 0
    },
    {
        "OBJECT_NAME": "COSMOS 1743",
        "OBJECT_ID": "1986-034A",
        "EPOCH": "2026-05-16T21:21:59.403168",
        "MEAN_MOTION": 15.64268566,
        "ECCENTRICITY": 0.0005687,
        "INCLINATION": 82.529,
        "RA_OF_ASC_NODE": 1.9378,
        "ARG_OF_PERICENTER": 51.1611,
        "MEAN_ANOMALY": 309.0155,
        "EPHEMERIS_TYPE": 0,
        "CLASSIFICATION_TYPE": "U",
        "NORAD_CAT_ID": 16719,
        "ELEMENT_SET_NO": 999,
        "REV_AT_EPOCH": 19089,
        "BSTAR": 0.00037468,
        "MEAN_MOTION_DOT": 0.00035836,
        "MEAN_MOTION_DDOT": 0
    },
    {
        "OBJECT_NAME": "SL-14 R/B",
        "OBJECT_ID": "1986-046B",
        "EPOCH": "2026-05-16T15:10:30.852192",
        "MEAN_MOTION": 14.85649287,
        "ECCENTRICITY": 0.0023295,
        "INCLINATION": 82.4836,
        "RA_OF_ASC_NODE": 15.9924,
        "ARG_OF_PERICENTER": 7.3989,
        "MEAN_ANOMALY": 352.7566,
        "EPHEMERIS_TYPE": 0,
        "CLASSIFICATION_TYPE": "U",
        "NORAD_CAT_ID": 16792,
        "ELEMENT_SET_NO": 999,
        "REV_AT_EPOCH": 13649,
        "BSTAR": 2.7177e-05,
        "MEAN_MOTION_DOT": 2.61e-06,
        "MEAN_MOTION_DDOT": 0
    },
    {
        "OBJECT_NAME": "SL-14 R/B",
        "OBJECT_ID": "1986-055B",
        "EPOCH": "2026-05-16T19:40:25.877280",
        "MEAN_MOTION": 14.8569812,
        "ECCENTRICITY": 0.0020415,
        "INCLINATION": 82.5213,
        "RA_OF_ASC_NODE": 62.6186,
        "ARG_OF_PERICENTER": 105.3793,
        "MEAN_ANOMALY": 273.6251,
        "EPHEMERIS_TYPE": 0,
        "CLASSIFICATION_TYPE": "U",
        "NORAD_CAT_ID": 16882,
        "ELEMENT_SET_NO": 999,
        "REV_AT_EPOCH": 12948,
        "BSTAR": 2.8459e-05,
        "MEAN_MOTION_DOT": 2.72e-06,
        "MEAN_MOTION_DDOT": 0
    },
    {
        "OBJECT_NAME": "AJISAI (EGS)",
        "OBJECT_ID": "1986-061A",
        "EPOCH": "2026-05-16T18:09:39.718080",
        "MEAN_MOTION": 12.44516245,
        "ECCENTRICITY": 0.0011398,
        "INCLINATION": 50.0089,
        "RA_OF_ASC_NODE": 244.0442,
        "ARG_OF_PERICENTER": 100.9388,
        "MEAN_ANOMALY": 63.6526,
        "EPHEMERIS_TYPE": 0,
        "CLASSIFICATION_TYPE": "U",
        "NORAD_CAT_ID": 16908,
        "ELEMENT_SET_NO": 999,
        "REV_AT_EPOCH": 47647,
        "BSTAR": 0.00012559,
        "MEAN_MOTION_DOT": -8e-07,
        "MEAN_MOTION_DDOT": 0
    }
]