SL-3 R/B                
1 13819U 83010B   26136.85320042  .00012626  00000+0  23739-3 0  9999
2 13819  81.1014 278.5268 0016073 167.5076 192.6572 15.48284529368485
SL-3 R/B                
1 14208U 83075B   26136.75367588  .00008840  00000+0  22319-3 0  9994
2 14208  97.6108 143.9885 0020311 351.5076   8.5822 15.39872171340624
COSMOS 1536             
1 14699U 84013A   26136.86104803  .00004881  00000+0  19547-3 0  9992
2 14699  82.5468  40.0339 0015688  47.9595 312.2975 15.24694986283006
SL-14 R/B               
1 14820U 84027B   26136.83719942  .00000245  00000+0  25042-4 0  9994
2 14820  82.5424 181.1156 0019537 106.5992 253.7372 14.86035987257758
SL-8 R/B                
1 15483U 85006B   26136.72735928  .00000037  00000+0  20910-4 0  9996
2 15483  74.0434 135.9551 0017685  30.3190 142.5522 14.37819416163800
SL-12 R/B(2)            
1 15772U 85042D   26136.70818917  .00000076  00000+0  55601-4 0  9993
2 15772  71.1077 304.0239 0034489  16.5096 354.0634 14.21999468124064
SL-14 R/B               
1 15945U 85069B   26136.80102381  .00000255  00000+0  26045-4 0  9995
2 15945  82.5252 320.8898 0017966 331.0243  28.9975 14.86490544182953
SL-16 R/B               
1 16182U 85097B   26136.62758574 -.00000155  00000+0 -53739-4 0  9992
2 16182  71.0041 357.5231 0006787 170.3318 221.4726 14.16609550 96859
SL-14 R/B               
1 16496U 86006B   26136.82719484  .00000354  00000+0  34582-4 0  9994
2 16496  82.5282 195.6218 0077515  47.6693 313.1055 14.86913225159337
COSMOS 1743             
1 16719U 86034A   26136.89027087  .00035836  00000+0  37468-3 0  9999
2 16719  82.5290   1.9378 0005687  51.1611 309.0155 15.64268566190890
SL-14 R/B               
1 16792U 86046B   26136.63230153  .00000261  00000+0  27177-4 0  9996
2 16792  82.4836  15.9924 0023295   7.3989 352.7566 14.85649287136496
SL-14 R/B               
1 16882U 86055B   26136.81974395  .00000272  00000+0  28459-4 0  9995
2 16882  82.5213  62.6186 0020415 105.3793 273.6251 14.85698120129481
AJISAI (EGS)            
1 16908U 86061A   26136.75670970 -.00000080  00000+0  12559-3 0  9997
2 16908  50.0089 244.0442 0011398 100.9388  63.6526 12.44516245476479
